OBJECT_NAME,OBJECT_ID,EPOCH,MEAN_MOTION,ECCENTRICITY,INCLINATION,RA_OF_ASC_NODE,ARG_OF_PERICENTER,MEAN_ANOMALY,EPHEMERIS_TYPE,CLASSIFICATION_TYPE,NORAD_CAT_ID,ELEMENT_SET_NO,REV_AT_EPOCH,BSTAR,MEAN_MOTION_DOT,MEAN_MOTION_DDOT
STARS (KUKAI),2009-002G,2026-07-13T20:13:11.008128,14.95921292,.0009834,98.1553,143.2437,82.9684,277.2654,0,U,33498,999,94246,.15066E-3,.1624E-4,0
KKS-1 (KISEKI),2009-002H,2026-07-13T20:06:17.163360,14.83187360,.000731,98.1175,117.7022,193.6951,166.4065,0,U,33499,999,94014,.88322E-4,.665E-5,0
UK-DMC 2,2009-041C,2026-07-13T20:48:06.966720,14.76093310,.0001545,97.8861,329.1859,99.7563,260.3821,0,U,35683,999,91050,.84358E-4,.532E-5,0
OCEANSAT-2,2009-051A,2026-07-13T20:43:57.223200,13.99656168,.0017256,98.2319,179.0519,157.3305,202.8627,0,U,35931,999,88306,-.52168E-4,-.114E-5,0
SWISSCUBE,2009-051B,2026-07-13T17:08:24.847008,14.62529232,.0007797,98.4010,103.0624,122.9504,237.2447,0,U,35932,999,89303,.10573E-3,.487E-5,0
BEESAT-1,2009-051C,2026-07-13T17:41:58.432704,14.61760532,.0006039,98.3937,102.6657,133.6539,226.5163,0,U,35933,999,89306,.88826E-4,.394E-5,0
ITUPSAT1,2009-051E,2026-07-13T16:23:43.334016,14.60477451,.0007976,98.4020,101.7741,147.4965,212.6727,0,U,35935,999,89260,.85196E-4,.364E-5,0
DMSP 5D-3 F18 (USA 210),2009-057A,2026-07-13T20:55:05.718144,14.14911100,.0011138,98.9055,175.5849,169.1767,190.9648,0,U,35951,999,86336,.1063E-3,.161E-5,0
PROBA-2,2009-059B,2026-07-13T12:18:14.134176,14.54873268,.00128964,98.2458,17.5015,194.0219,166.0622,0,U,36037,999,88535,.29775958E-4,.83E-6,0
YAOGAN-7,2009-069A,2026-07-13T16:39:57.907872,14.78034681,.0023604,98.0035,80.3936,316.4079,43.5266,0,U,36110,999,89354,.38073E-4,.223E-5,0
XIWANG-1 (HOPE-1),2009-072B,2026-07-13T20:14:44.653632,13.16440662,.0007513,100.4029,148.2513,167.7258,192.4039,0,U,36122,999,79651,.68379E-3,.217E-5,0
COSMOS 2463,2010-017A,2026-07-13T13:03:32.887296,13.71667131,.00373499,82.9583,230.3405,58.3625,105.8077,0,U,36519,999,81154,.35021983E-4,.47E-6,0
CARTOSAT-2B,2010-035A,2026-07-13T20:48:00.463392,14.78615628,.0012573,97.9947,245.2433,102.9282,257.3334,0,U,36795,999,86379,.13868E-4,.49E-6,0
TISAT 1,2010-035E,2026-07-13T18:17:32.123904,15.32696096,.0004388,98.0711,143.6911,122.4638,237.7026,0,U,36799,999,87177,.36768E-3,.11528E-3,0
YAOGAN-10,2010-038A,2026-07-13T21:41:09.154752,14.85425815,.0001597,97.8972,218.0944,84.7087,35.9467,0,U,36834,999,86117,.11421E-3,.93E-5,0
SHIJIAN-6 04B (SJ-6 04B),2010-051B,2026-07-13T20:25:39.002304,14.99383243,.0007536,97.8738,200.5463,216.2799,143.7913,0,U,37180,999,85967,.80465E-5,.37E-6,0
FENGYUN 3B,2010-059A,2026-07-13T19:59:28.505184,14.14847063,.0023123,98.9615,240.9582,110.2177,0.5474,0,U,37214,999,81119,.11188E-4,-.23E-6,0
COSMO-SKYMED 4,2010-060A,2026-07-13T20:10:07.284576,14.82147588,.0001503,97.8890,18.0548,84.9569,275.1816,0,U,37216,999,84851,.16968E-5,-.39E-6,0
O/OREOS (USA 219),2010-062C,2026-07-13T20:22:40.710720,14.93848747,.0013908,71.9696,19.9384,7.7163,352.4219,0,U,37224,999,12062,.11239E-3,.1132E-4,0
RESOURCESAT-2,2011-015A,2026-07-13T18:20:18.372192,14.21605668,.0011518,98.7633,262.0207,175.1171,185.0120,0,U,37387,999,78995,.33701E-4,.3E-6,0
YOUTHSAT,2011-015B,2026-07-13T21:29:05.032896,14.25640303,.0013187,98.3702,167.7477,263.4522,150.6040,0,U,37388,999,79144,.47768E-4,.72E-6,0
APRIZESAT 6,2011-044F,2026-07-13T16:53:04.884864,14.76955496,.0043182,98.2340,105.7424,3.0266,54.5582,0,U,37793,999,80106,.62464E-4,.39E-5,0
JUGNU,2011-058B,2026-07-13T01:27:49.154112,14.13783158,.0018498,19.9592,151.2304,2.9049,74.5783,0,U,37839,999,76269,.42398519E-4,.348E-5,0
SRMSAT,2011-058D,2026-07-13T10:56:57.365664,14.11580880,.00118107,19.9713,260.4725,132.1672,338.6137,0,U,37841,999,76153,.42888582E-4,.344E-5,0
SUOMI NPP,2011-061A,2026-07-13T20:14:17.353824,14.19522417,.0000691,98.7956,135.5380,222.5445,137.5678,0,U,37849,999,76222,.20893E-4,0,0
YAOGAN-12,2011-066B,2026-07-13T21:00:32.457024,15.26886079,.001091,97.1133,232.1906,125.8185,234.4070,0,U,37875,999,81611,.15319E-3,.3982E-4,0
